[{"OBJECT_NAME":"STARLINK-34995","OBJECT_ID":"2025-184N","EPOCH":"2026-03-09T17:16:54.649344","MEAN_MOTION":15.05656869,"ECCENTRICITY":0.00011576,"INCLINATION":97.6017,"RA_OF_ASC_NODE":122.6631,"ARG_OF_PERICENTER":146.3956,"MEAN_ANOMALY":213.7345,"EPHEMERIS_TYPE":0,"CLASSIFICATION_TYPE":"U","NORAD_CAT_ID":65285,"ELEMENT_SET_NO":999,"REV_AT_EPOCH":3130,"BSTAR":0.00017779563,"MEAN_MOTION_DOT":2.506e-5,"MEAN_MOTION_DDOT":0},{"OBJECT_NAME":"RAAF M1","OBJECT_ID":"2018-099X","EPOCH":"2026-03-09T15:51:10.230048","MEAN_MOTION":15.07065376,"ECCENTRICITY":0.00134971,"INCLINATION":97.4534,"RA_OF_ASC_NODE":114.8325,"ARG_OF_PERICENTER":21.6261,"MEAN_ANOMALY":338.5534,"EPHEMERIS_TYPE":0,"CLASSIFICATION_TYPE":"U","NORAD_CAT_ID":43779,"ELEMENT_SET_NO":999,"REV_AT_EPOCH":39714,"BSTAR":0.00026511092,"MEAN_MOTION_DOT":3.923e-5,"MEAN_MOTION_DDOT":0}]
